[{"OBJECT_NAME":"STARLINK-35709","OBJECT_ID":"2025-244L","EPOCH":"2026-03-09T17:32:57.817536","MEAN_MOTION":15.30208054,"ECCENTRICITY":8.707e-5,"INCLINATION":53.1574,"RA_OF_ASC_NODE":229.8782,"ARG_OF_PERICENTER":74.3362,"MEAN_ANOMALY":285.7735,"EPHEMERIS_TYPE":0,"CLASSIFICATION_TYPE":"U","NORAD_CAT_ID":66216,"ELEMENT_SET_NO":999,"REV_AT_EPOCH":2166,"BSTAR":0.0010666771,"MEAN_MOTION_DOT":0.00031374,"MEAN_MOTION_DDOT":0},{"OBJECT_NAME":"TRANSPORTER-1 OBJECT M","OBJECT_ID":"2021-006M","EPOCH":"2026-03-09T22:05:37.843296","MEAN_MOTION":15.3227845,"ECCENTRICITY":0.00102759,"INCLINATION":97.2377,"RA_OF_ASC_NODE":116.7915,"ARG_OF_PERICENTER":187.5492,"MEAN_ANOMALY":172.5597,"EPHEMERIS_TYPE":0,"CLASSIFICATION_TYPE":"U","NORAD_CAT_ID":47424,"ELEMENT_SET_NO":999,"REV_AT_EPOCH":28439,"BSTAR":0.00023985652,"MEAN_MOTION_DOT":7.411e-5,"MEAN_MOTION_DDOT":0}]
